IRIDIUM 103             
1 41918U 17003B   24139.44315450  .00000786  00000+0  27371-3 0  9992
2 41918  86.3995  45.9192 0002283  74.2926 285.8521 14.34222167384334
IRIDIUM 109             
1 41919U 17003C   24139.44950364 -.00000102  00000+0 -43430-4 0  9991
2 41919  86.3997  45.9636 0002489  83.5811 276.5668 14.34216503384307
IRIDIUM 102             
1 41920U 17003D   24139.48756848  .00001113  00000+0  39045-3 0  9995
2 41920  86.3999  45.8872 0002443  87.5240 272.6235 14.34218537384397
IRIDIUM 105             
1 41921U 17003E   24139.59785454  .00000248  00000+0  81600-4 0  9996
2 41921  86.4007  14.2809 0002168  81.5164 278.6277 14.34223403386260
IRIDIUM 104             
1 41922U 17003F   24139.29093743  .00000012  00000+0 -27842-5 0  9996
2 41922  86.4000  45.9986 0003027  75.2581 284.8950 14.34221606384357
